<?xml version="1.0" encoding="UTF-8"?>
<ndm xmlns:xsi="http://www.w3.org/2001/XMLSchema-instance" xsi:noNamespaceSchemaLocation="https://sanaregistry.org/r/ndmxml_unqualified/ndmxml-2.0.0-master-2.0.xsd">
<omm id="CCSDS_OMM_VERS" version="2.0">
<header><CREATION_DATE/><ORIGINATOR/></header><body><segment><metadata><OBJECT_NAME>ORBCOMM FM24</OBJECT_NAME><OBJECT_ID>1998-053D</OBJECT_ID><CENTER_NAME>EARTH</CENTER_NAME><REF_FRAME>TEME</REF_FRAME><TIME_SYSTEM>UTC</TIME_SYSTEM><MEAN_ELEMENT_THEORY>SGP4</MEAN_ELEMENT_THEORY></metadata><data><meanElements><EPOCH>2025-01-29T11:34:29.912160</EPOCH><MEAN_MOTION>14.37448620</MEAN_MOTION><ECCENTRICITY>.000224</ECCENTRICITY><INCLINATION>45.0055</INCLINATION><RA_OF_ASC_NODE>206.4743</RA_OF_ASC_NODE><ARG_OF_PERICENTER>219.0822</ARG_OF_PERICENTER><MEAN_ANOMALY>140.9864</MEAN_ANOMALY></meanElements><tleParameters><EPHEMERIS_TYPE>0</EPHEMERIS_TYPE><CLASSIFICATION_TYPE>U</CLASSIFICATION_TYPE><NORAD_CAT_ID>25478</NORAD_CAT_ID><ELEMENT_SET_NO>999</ELEMENT_SET_NO><REV_AT_EPOCH>37776</REV_AT_EPOCH><BSTAR>.94666E-3</BSTAR><MEAN_MOTION_DOT>.2717E-4</MEAN_MOTION_DOT><MEAN_MOTION_DDOT>0</MEAN_MOTION_DDOT></tleParameters></data></segment></body></omm>
<omm id="CCSDS_OMM_VERS" version="2.0">
<header><CREATION_DATE/><ORIGINATOR/></header><body><segment><metadata><OBJECT_NAME>ORBCOMM FM25</OBJECT_NAME><OBJECT_ID>1998-053E</OBJECT_ID><CENTER_NAME>EARTH</CENTER_NAME><REF_FRAME>TEME</REF_FRAME><TIME_SYSTEM>UTC</TIME_SYSTEM><MEAN_ELEMENT_THEORY>SGP4</MEAN_ELEMENT_THEORY></metadata><data><meanElements><EPOCH>2025-01-29T12:30:07.446528</EPOCH><MEAN_MOTION>14.37436908</MEAN_MOTION><ECCENTRICITY>.0004153</ECCENTRICITY><INCLINATION>45.0050</INCLINATION><RA_OF_ASC_NODE>204.5471</RA_OF_ASC_NODE><ARG_OF_PERICENTER>250.8270</ARG_OF_PERICENTER><MEAN_ANOMALY>109.2128</MEAN_ANOMALY></meanElements><tleParameters><EPHEMERIS_TYPE>0</EPHEMERIS_TYPE><CLASSIFICATION_TYPE>U</CLASSIFICATION_TYPE><NORAD_CAT_ID>25479</NORAD_CAT_ID><ELEMENT_SET_NO>999</ELEMENT_SET_NO><REV_AT_EPOCH>37778</REV_AT_EPOCH><BSTAR>.10369E-2</BSTAR><MEAN_MOTION_DOT>.2989E-4</MEAN_MOTION_DOT><MEAN_MOTION_DDOT>0</MEAN_MOTION_DDOT></tleParameters></data></segment></body></omm>
<omm id="CCSDS_OMM_VERS" version="2.0">
<header><CREATION_DATE/><ORIGINATOR/></header><body><segment><metadata><OBJECT_NAME>ORBCOMM FM26</OBJECT_NAME><OBJECT_ID>1998-053F</OBJECT_ID><CENTER_NAME>EARTH</CENTER_NAME><REF_FRAME>TEME</REF_FRAME><TIME_SYSTEM>UTC</TIME_SYSTEM><MEAN_ELEMENT_THEORY>SGP4</MEAN_ELEMENT_THEORY></metadata><data><meanElements><EPOCH>2025-01-28T23:00:29.675520</EPOCH><MEAN_MOTION>14.36589523</MEAN_MOTION><ECCENTRICITY>.0005562</ECCENTRICITY><INCLINATION>45.0045</INCLINATION><RA_OF_ASC_NODE>202.7100</RA_OF_ASC_NODE><ARG_OF_PERICENTER>275.6283</ARG_OF_PERICENTER><MEAN_ANOMALY>84.3931</MEAN_ANOMALY></meanElements><tleParameters><EPHEMERIS_TYPE>0</EPHEMERIS_TYPE><CLASSIFICATION_TYPE>U</CLASSIFICATION_TYPE><NORAD_CAT_ID>25480</NORAD_CAT_ID><ELEMENT_SET_NO>999</ELEMENT_SET_NO><REV_AT_EPOCH>37772</REV_AT_EPOCH><BSTAR>.87945E-3</BSTAR><MEAN_MOTION_DOT>.2469E-4</MEAN_MOTION_DOT><MEAN_MOTION_DDOT>0</MEAN_MOTION_DDOT></tleParameters></data></segment></body></omm>
<omm id="CCSDS_OMM_VERS" version="2.0">
<header><CREATION_DATE/><ORIGINATOR/></header><body><segment><metadata><OBJECT_NAME>ORBCOMM FM27</OBJECT_NAME><OBJECT_ID>1998-053G</OBJECT_ID><CENTER_NAME>EARTH</CENTER_NAME><REF_FRAME>TEME</REF_FRAME><TIME_SYSTEM>UTC</TIME_SYSTEM><MEAN_ELEMENT_THEORY>SGP4</MEAN_ELEMENT_THEORY></metadata><data><meanElements><EPOCH>2025-01-29T10:34:55.227936</EPOCH><MEAN_MOTION>14.37444446</MEAN_MOTION><ECCENTRICITY>.0001248</ECCENTRICITY><INCLINATION>45.0029</INCLINATION><RA_OF_ASC_NODE>205.1684</RA_OF_ASC_NODE><ARG_OF_PERICENTER>181.5956</ARG_OF_PERICENTER><MEAN_ANOMALY>178.4888</MEAN_ANOMALY></meanElements><tleParameters><EPHEMERIS_TYPE>0</EPHEMERIS_TYPE><CLASSIFICATION_TYPE>U</CLASSIFICATION_TYPE><NORAD_CAT_ID>25481</NORAD_CAT_ID><ELEMENT_SET_NO>999</ELEMENT_SET_NO><REV_AT_EPOCH>37774</REV_AT_EPOCH><BSTAR>.10248E-2</BSTAR><MEAN_MOTION_DOT>.2952E-4</MEAN_MOTION_DOT><MEAN_MOTION_DDOT>0</MEAN_MOTION_DDOT></tleParameters></data></segment></body></omm>
<omm id="CCSDS_OMM_VERS" version="2.0">
<header><CREATION_DATE/><ORIGINATOR/></header><body><segment><metadata><OBJECT_NAME>ORBCOMM FM28</OBJECT_NAME><OBJECT_ID>1998-053H</OBJECT_ID><CENTER_NAME>EARTH</CENTER_NAME><REF_FRAME>TEME</REF_FRAME><TIME_SYSTEM>UTC</TIME_SYSTEM><MEAN_ELEMENT_THEORY>SGP4</MEAN_ELEMENT_THEORY></metadata><data><meanElements><EPOCH>2025-01-28T19:19:32.502720</EPOCH><MEAN_MOTION>14.37707454</MEAN_MOTION><ECCENTRICITY>.0004344</ECCENTRICITY><INCLINATION>45.0044</INCLINATION><RA_OF_ASC_NODE>145.9173</RA_OF_ASC_NODE><ARG_OF_PERICENTER>291.4195</ARG_OF_PERICENTER><MEAN_ANOMALY>68.6190</MEAN_ANOMALY></meanElements><tleParameters><EPHEMERIS_TYPE>0</EPHEMERIS_TYPE><CLASSIFICATION_TYPE>U</CLASSIFICATION_TYPE><NORAD_CAT_ID>25482</NORAD_CAT_ID><ELEMENT_SET_NO>999</ELEMENT_SET_NO><REV_AT_EPOCH>37829</REV_AT_EPOCH><BSTAR>.9461E-3</BSTAR><MEAN_MOTION_DOT>.273E-4</MEAN_MOTION_DOT><MEAN_MOTION_DDOT>0</MEAN_MOTION_DDOT></tleParameters></data></segment></body></omm>
<omm id="CCSDS_OMM_VERS" version="2.0">
<header><CREATION_DATE/><ORIGINATOR/></header><body><segment><metadata><OBJECT_NAME>ORBCOMM FM30</OBJECT_NAME><OBJECT_ID>1999-065A</OBJECT_ID><CENTER_NAME>EARTH</CENTER_NAME><REF_FRAME>TEME</REF_FRAME><TIME_SYSTEM>UTC</TIME_SYSTEM><MEAN_ELEMENT_THEORY>SGP4</MEAN_ELEMENT_THEORY></metadata><data><meanElements><EPOCH>2025-01-29T09:09:04.992192</EPOCH><MEAN_MOTION>14.36750432</MEAN_MOTION><ECCENTRICITY>.0006355</ECCENTRICITY><INCLINATION>45.0318</INCLINATION><RA_OF_ASC_NODE>26.4874</RA_OF_ASC_NODE><ARG_OF_PERICENTER>12.7424</ARG_OF_PERICENTER><MEAN_ANOMALY>347.3583</MEAN_ANOMALY></meanElements><tleParameters><EPHEMERIS_TYPE>0</EPHEMERIS_TYPE><CLASSIFICATION_TYPE>U</CLASSIFICATION_TYPE><NORAD_CAT_ID>25980</NORAD_CAT_ID><ELEMENT_SET_NO>999</ELEMENT_SET_NO><REV_AT_EPOCH>31501</REV_AT_EPOCH><BSTAR>.97241E-3</BSTAR><MEAN_MOTION_DOT>.2754E-4</MEAN_MOTION_DOT><MEAN_MOTION_DDOT>0</MEAN_MOTION_DDOT></tleParameters></data></segment></body></omm>
<omm id="CCSDS_OMM_VERS" version="2.0">
<header><CREATION_DATE/><ORIGINATOR/></header><body><segment><metadata><OBJECT_NAME>ORBCOMM FM31</OBJECT_NAME><OBJECT_ID>1999-065B</OBJECT_ID><CENTER_NAME>EARTH</CENTER_NAME><REF_FRAME>TEME</REF_FRAME><TIME_SYSTEM>UTC</TIME_SYSTEM><MEAN_ELEMENT_THEORY>SGP4</MEAN_ELEMENT_THEORY></metadata><data><meanElements><EPOCH>2025-01-29T01:43:35.559840</EPOCH><MEAN_MOTION>14.36719707</MEAN_MOTION><ECCENTRICITY>.0003218</ECCENTRICITY><INCLINATION>45.0234</INCLINATION><RA_OF_ASC_NODE>21.4895</RA_OF_ASC_NODE><ARG_OF_PERICENTER>21.2469</ARG_OF_PERICENTER><MEAN_ANOMALY>338.8512</MEAN_ANOMALY></meanElements><tleParameters><EPHEMERIS_TYPE>0</EPHEMERIS_TYPE><CLASSIFICATION_TYPE>U</CLASSIFICATION_TYPE><NORAD_CAT_ID>25981</NORAD_CAT_ID><ELEMENT_SET_NO>999</ELEMENT_SET_NO><REV_AT_EPOCH>31496</REV_AT_EPOCH><BSTAR>.956E-3</BSTAR><MEAN_MOTION_DOT>.2703E-4</MEAN_MOTION_DOT><MEAN_MOTION_DDOT>0</MEAN_MOTION_DDOT></tleParameters></data></segment></body></omm>
<omm id="CCSDS_OMM_VERS" version="2.0">
<header><CREATION_DATE/><ORIGINATOR/></header><body><segment><metadata><OBJECT_NAME>ORBCOMM FM32</OBJECT_NAME><OBJECT_ID>1999-065C</OBJECT_ID><CENTER_NAME>EARTH</CENTER_NAME><REF_FRAME>TEME</REF_FRAME><TIME_SYSTEM>UTC</TIME_SYSTEM><MEAN_ELEMENT_THEORY>SGP4</MEAN_ELEMENT_THEORY></metadata><data><meanElements><EPOCH>2025-01-29T10:37:47.663328</EPOCH><MEAN_MOTION>14.35756098</MEAN_MOTION><ECCENTRICITY>.0004751</ECCENTRICITY><INCLINATION>45.0158</INCLINATION><RA_OF_ASC_NODE>35.3747</RA_OF_ASC_NODE><ARG_OF_PERICENTER>33.8115</ARG_OF_PERICENTER><MEAN_ANOMALY>326.3035</MEAN_ANOMALY></meanElements><tleParameters><EPHEMERIS_TYPE>0</EPHEMERIS_TYPE><CLASSIFICATION_TYPE>U</CLASSIFICATION_TYPE><NORAD_CAT_ID>25982</NORAD_CAT_ID><ELEMENT_SET_NO>999</ELEMENT_SET_NO><REV_AT_EPOCH>31478</REV_AT_EPOCH><BSTAR>.90119E-3</BSTAR><MEAN_MOTION_DOT>.2489E-4</MEAN_MOTION_DOT><MEAN_MOTION_DDOT>0</MEAN_MOTION_DDOT></tleParameters></data></segment></body></omm>

</ndm>
