ORBCOMM FM24            
1 25478U 98053D   25029.48229065  .00002717  00000+0  94666-3 0  9995
2 25478  45.0055 206.4743 0002240 219.0822 140.9864 14.37448620377766
ORBCOMM FM25            
1 25479U 98053E   25029.52091952  .00002989  00000+0  10369-2 0  9991
2 25479  45.0050 204.5471 0004153 250.8270 109.2128 14.37436908377783
ORBCOMM FM26            
1 25480U 98053F   25028.95867680  .00002469  00000+0  87945-3 0  9996
2 25480  45.0045 202.7100 0005562 275.6283  84.3931 14.36589523377722
ORBCOMM FM27            
1 25481U 98053G   25029.44091699  .00002952  00000+0  10248-2 0  9999
2 25481  45.0029 205.1684 0001248 181.5956 178.4888 14.37444446377741
ORBCOMM FM28            
1 25482U 98053H   25028.80523730  .00002730  00000+0  94610-3 0  9995
2 25482  45.0044 145.9173 0004344 291.4195  68.6190 14.37707454378297
ORBCOMM FM30            
1 25980U 99065A   25029.38130778  .00002754  00000+0  97241-3 0  9991
2 25980  45.0318  26.4874 0006355  12.7424 347.3583 14.36750432315015
ORBCOMM FM31            
1 25981U 99065B   25029.07193935  .00002703  00000+0  95600-3 0  9993
2 25981  45.0234  21.4895 0003218  21.2469 338.8512 14.36719707314960
ORBCOMM FM32            
1 25982U 99065C   25029.44291277  .00002489  00000+0  90119-3 0  9994
2 25982  45.0158  35.3747 0004751  33.8115 326.3035 14.35756098314781
